#cP2023 11 17  0  0  0.00000000      96 ORBIT IGS20 HLM  IGS
## 2288 432000.00000000   900.00000000 60265 0.0000000000000
+   32   G01G02G03G04G05G06G07G08G09G10G11G12G13G14G15G16G17
+        G18G19G20G21G22G23G24G25G26G27G28G29G30G31G32  0  0
+          0  0  0  0  0  0  0  0  0  0  0  0  0  0  0  0  0
+          0  0  0  0  0  0  0  0  0  0  0  0  0  0  0  0  0
+          0  0  0  0  0  0  0  0  0  0  0  0  0  0  0  0  0
++         2  2  2  2  2  2  2  2  2  2  2  2  2  2  2  2  2
++         2  2  2  2  2  2  2  3  3  2  2  2  2  2  2  0  0
++         0  0  0  0  0  0  0  0  0  0  0  0  0  0  0  0  0
++         0  0  0  0  0  0  0  0  0  0  0  0  0  0  0  0  0
++         0  0  0  0  0  0  0  0  0  0  0  0  0  0  0  0  0
%c G  cc GPS ccc cccc cccc cccc cccc ccccc ccccc ccccc ccccc
%c cc cc ccc ccc cccc cccc cccc cccc ccccc ccccc ccccc ccccc
%f  1.2500000  1.025000000  0.00000000000  0.000000000000000
%f  0.0000000  0.000000000  0.00000000000  0.000000000000000
%i    0    0    0    0      0      0      0      0         0
%i    0    0    0    0      0      0      0      0         0
/* RAPID ORBIT COMBINATION FROM WEIGHTED AVERAGE OF:        
/* cod emr esa gfz grg jgx jpl ngs sio usn whu              
/* REFERENCED TO IGS TIME (IGST) AND TO WEIGHTED MEAN POLE: 
/* PCV:IGS20      OL/AL:FES2014b NONE     Y  ORB:CMB CLK:CMB
*  2023 11 17 12  0  0.00000000
PG01 -13778.301522  21584.748705  -6675.272703    163.206267  7  5  7  78       
PG02 -16382.298963  20754.414711   1181.111316   -527.796844  8  3  4 104       
PG03  -8636.711348  12998.465210 -21619.535711     -8.269911  7  5  4  95       
PG04  -2893.884394  22672.205378 -13409.408870    215.289159  8  7  6  85       
PG05  21228.881264  -6777.060953  14343.926664   -150.718077  6  5  2  63       
PG06  16349.838661   2209.322195 -20769.616656    503.587378  8  6  1 103       
PG07   1629.894552  18749.455144  19030.491257     11.172468  6  5  6  98       
PG08  -8620.511634  15829.573092  19290.078831   -152.534482  8  6  3 107       
PG09   6318.686996  25466.307141  -4011.722591     -0.343826  8  4  6  86       
PG10 -22322.692579 -11103.215982   9815.849016    -61.736500  9  5  6  77       
PG11  21170.651384  -8309.662114 -13652.979943   -463.806463  9  3  6  97       
PG12  11065.285258 -12173.212418 -21116.327919   -447.939908  9  3  6 102       
PG13  13972.837727  -5791.040537  21613.797136    596.216732  6  3  5  82       
PG14  19486.035295  13450.723286  12231.310599    245.732533  9  5  5  88       
PG15   6405.103324 -17416.009640  18435.188417     97.996535  5  6  4  93       
PG16 -24744.087043    -21.454359   9932.050957   -420.530252  8  6  7 106       
PG17  12694.958068  20828.198087  -9910.394752    723.148151  8  6  4  85       
PG18  -2216.403917 -17523.843202  19787.878261   -481.599916  5  7  7  85       
PG19  15223.912078  13677.491745 -17308.205476    400.119498  7  6  5  84       
PG20  26291.529747  -1318.754554   2719.403466    401.184027  8  6  3  70       
PG21 -17622.535857  18769.166606   4512.019298    144.032837  7  3  3 109       
PG22  23136.134148  11338.720900   6235.892739     82.299339  4  5  4  88       
PG23 -11711.411968 -14825.973061  18756.661690    100.404611  5  6  6  83       
PG24  14813.526680 -21754.677645  -1055.710406   -373.287994  5  3  6 111       
PG25  -3266.859895 -16014.744135 -21303.709693    477.765220  7  8  6 111       
PG26 -26556.273241  -3307.086523    -67.077686    216.026407  9  4  9  98       
PG27 -15184.826439   1672.889737  21502.956940    -71.148896  5  5  6  96       
PG28 -15600.996795  -4206.064265 -21106.783132    -48.193434  8  5  5  97       
PG29  -3673.539696 -25908.990659  -4260.018695   -610.205133  8  6  4 106       
PG30  10919.760273  11497.352653  21418.261999   -467.314753  6  4  5  63       
PG31 -20186.222934   3953.634422 -17226.921155   -225.824443  6  6  5  92       
PG32 -15582.694378 -17243.103763 -12860.805682   -586.732925  6  7  5  76       
*  2023 11 17 12 15  0.00000000
PG01 -14287.100453  21893.181680  -3824.266806    163.206345  7  5  7  85       
PG02 -16446.463825  20412.291520   4041.866513   -527.792289  8  3  4 110       
PG03 -10987.389984  12548.181715 -20788.077870     -8.246831  7  5  4  83       
PG04  -3609.338409  21159.175445 -15549.061123    215.298512  8  7  6  73       
PG05  22730.125665  -6416.746779  12064.097309   -150.719556  6  5  2  24       
PG06  14822.521531   4099.547350 -21600.590583    503.578247  8  6  2  88       
PG07    215.501503  20203.294822  17467.649941     11.163550  6  4  6  87       
PG08  -9612.269769  13750.966722  20415.431073   -152.535965  8  6  3  99       
PG09   5848.040442  25000.337355  -6773.186592     -0.333709  8  4  6  85       
PG10 -21088.831433 -11046.119142  12308.623775    -61.738026  8  5  6  92       
PG11  20171.802535  -6937.154473 -15769.132711   -463.821016  9  3  7 101       
PG12  13288.984951 -11562.330807 -20135.280076   -447.943719  9  4  6  84       
PG13  14546.447207  -3332.726823  21771.191006    596.220434  5  2  5  89       
PG14  17952.525116  13376.772041  14446.034255    245.742223  8  4  5  89       
PG15   7655.912451 -15494.609015  19624.466215     98.000058  4  5  3  85       
PG16 -25677.918062   -467.255541   7329.211002   -420.524036  8  6  6  94       
PG17  12786.674454  21888.069048  -7259.684848    723.147737  8  6  4  83       
PG18   -713.252899 -19111.052979  18362.286008   -481.609677  5  7  6  89       
PG19  15559.873639  15475.324682 -15396.986615    400.124447  8  6  5  71       
PG20  26438.534465  -1023.952382   -123.212344    401.182389  8  5  4  82       
PG21 -17517.217373  18070.962048   7314.802189    144.031998  8  2  3 107       
PG22  22279.604187  11371.485271   8933.991622     82.293191  3  4  4  81       
PG23  -9507.977692 -14618.215165  20101.899342    100.410406  5  6  6  82       
PG24  15070.125812 -21480.224897   1769.393257   -373.295976  5  2  5 107       
PG25   -893.487427 -15692.504101 -21753.211291    477.766623  7  8  7 101       
PG26 -26378.756639  -3596.937966  -2838.773667    216.024093 10  4  9 102       
PG27 -16041.860549   -652.966369  20972.507821    -71.153568  5  4  6  79       
PG28 -14155.682454  -6172.307295 -21636.130047    -48.201200  8  6  5  92       
PG29  -3284.329215 -25352.923267  -7050.054007   -610.204952  7  5  5 108       
PG30   9339.795116  13327.754234  21076.577172   -467.311113  5  5  4  76       
PG31 -18972.234028   2342.183791 -18808.933338   -225.824752  6  6  5  87       
PG32 -15878.934070 -18580.104931 -10464.404175   -586.736867  5  6  5  84       
*  2023 11 17 12 30  0.00000000
PG01 -14582.204828  21965.373702   -906.433409    163.206423  7  5  7  67       
PG02 -16359.321600  19803.214485   6832.816477   -527.787654  8  2  5 108       
PG03 -13247.758464  12240.978828 -19602.591909     -8.223724  7  5  5  84       
PG04  -4487.869924  19475.076853 -17419.460105    215.307922  8  7  6  75       
PG05  23976.751641  -6153.569696   9575.710883   -150.721541  6  5  3  53       
PG06  13360.220298   6132.913419 -22058.036878    503.569140  8  6  3  90       
PG07  -1015.826248  21575.564670  15609.208899     11.154412  7  4  6  89       
PG08 -10753.184289  11631.106571  21184.093418   -152.536881  7  6  4  90       
PG09   5223.908886  24282.737007  -9417.999502     -0.323575  8  4  6  72       
PG10 -19587.228669 -11031.053372  14595.198823    -61.739851  8  6  6  98       
PG11  19106.131293  -5338.826438 -17612.904362   -463.835581  9  3  7  97       
PG12  15416.837157 -11092.258164 -18815.174629   -447.947397 10  4  7  82       
PG13  15247.848519   -914.033975  21546.917622    596.224111  5  1  5  70       
PG14  16183.159295  13349.125587  16414.482775    245.751864  7  4  5  90       
PG15   9056.571294 -13534.453291  20459.959128     98.003327  3  5  3  78       
PG16 -26338.333225   -802.398633   4602.262020   -420.518302  8  6  5  80       
PG17  12827.806740  22647.941528  -4481.252380    723.147366  8  6  4  87       
PG18    594.747943 -20634.193355  16619.020552   -481.619392  5  6  6  80       
PG19  15922.658463  17034.477972 -13228.056274    400.129058  8  6  5  56       
PG20  26278.104714   -714.825588  -2963.680685    401.180934  8  5  4  91       
PG21 -17282.592501  17104.045096   9986.645005    144.030941  8  1  4 107       
PG22  21138.299358  11388.573949  11478.389876     82.286535  3  4  4  69       
PG23  -7162.618952 -14521.915686  21103.231963    100.416200  5  5  5  77       
PG24  15177.525549 -20940.841946   4563.091189   -373.303961  5  1  4  92       
PG25   1525.389980 -15490.670813 -21839.865807    477.768126  7  8  7  97       
PG26 -25908.851672  -3884.306471  -5562.772770    216.021748 10  4  9  95       
PG27 -16984.288374  -2851.968400  20075.106204    -71.158263  4  4  5  78       
PG28 -12793.354610  -8243.559169 -21794.104615    -48.208953  8  6  5  89       
PG29  -2761.552444 -24526.942818  -9718.189639   -610.204675  7  4  5  96       
PG30   7882.866421  15187.222465  20375.012773   -467.307470  5  5  3  76       
PG31 -17746.587846    541.277980 -20076.495055   -225.824942  7  5  6  80       
PG32 -16128.345323 -19641.991335  -7888.422513   -586.740833  5  6  6  70       
EOF
